OBJECT_NAME,OBJECT_ID,EPOCH,MEAN_MOTION,ECCENTRICITY,INCLINATION,RA_OF_ASC_NODE,ARG_OF_PERICENTER,MEAN_ANOMALY,EPHEMERIS_TYPE,CLASSIFICATION_TYPE,NORAD_CAT_ID,ELEMENT_SET_NO,REV_AT_EPOCH,BSTAR,MEAN_MOTION_DOT,MEAN_MOTION_DDOT
TIANMU-1 21,2023-208C,2026-07-11T19:39:27.838944,15.35512280,.0006369,97.4521,312.7025,217.0142,143.0662,0,U,58662,999,14134,.17506E-3,.5962E-4,0
TIANMU-1 22,2023-208D,2026-07-11T20:09:42.632928,15.31397151,.000249,97.4516,309.1888,234.8333,125.2675,0,U,58663,999,14110,.15064E-3,.4489E-4,0
TIANMU-1 15,2024-004A,2026-07-11T20:53:35.399904,15.26892518,.0005845,97.4668,19.0614,242.8287,117.2356,0,U,58700,999,13954,.12678E-3,.3275E-4,0
TIANMU-1 16,2024-004B,2026-07-11T20:38:44.723040,15.26995122,.0004337,97.4616,18.2694,261.5763,98.4984,0,U,58701,999,13954,.12174E-3,.3151E-4,0
TIANMU-1 17,2024-004C,2026-07-11T20:17:50.006688,15.26993276,.0003837,97.4642,18.7489,268.8301,91.2498,0,U,58702,999,13953,.13111E-3,.3399E-4,0
TIANMU-1 18,2024-004D,2026-07-11T19:43:07.923936,15.26909245,.0003541,97.4660,18.9872,240.6306,119.4579,0,U,58703,999,13953,.12872E-3,.3327E-4,0
INSAT-3DS,2024-033A,2026-07-11T20:47:35.068704,1.00271283,.0001043,0.1008,265.4156,225.2891,193.0316,0,U,58990,999,4731,0,-.152E-5,0
METEOR-M2 4,2024-039A,2026-07-11T20:57:47.147904,14.22431979,.0008239,98.7023,151.8629,97.0467,263.1648,0,U,59051,999,12277,.13803E-4,-.13E-6,0
GOES 19,2024-119A,2026-07-11T20:02:40.357248,1.00269880,.0000592,0.0117,275.3205,290.5406,309.3407,0,U,60133,999,721,0,-.244E-5,0
MTG-S1,2025-143A,2026-07-11T20:24:02.636064,1.00272868,.0003483,0.5862,344.2822,262.0524,349.0001,0,U,64723,999,366,0,-.3E-7,0
METOP-SGA1,2025-172A,2026-07-11T19:18:40.668768,14.19818799,.0007239,98.6631,252.0118,342.3786,17.7139,0,U,65159,999,4728,.1951E-4,-.2E-7,0
FENGYUN 3H,2025-219A,2026-07-11T20:16:59.191392,14.19924500,.0001214,98.6772,133.1354,62.6147,297.5152,0,U,65815,999,4088,.19995E-4,-.1E-7,0
