TIANMU-1 21             
1 58662U 23208C   26192.81907221  .00005962  00000+0  17506-3 0  9995
2 58662  97.4521 312.7025 0006369 217.0142 143.0662 15.35512280141345
TIANMU-1 22             
1 58663U 23208D   26192.84007677  .00004489  00000+0  15064-3 0  9995
2 58663  97.4516 309.1888 0002490 234.8333 125.2675 15.31397151141101
TIANMU-1 15             
1 58700U 24004A   26192.87054861  .00003275  00000+0  12678-3 0  9992
2 58700  97.4668  19.0614 0005845 242.8287 117.2356 15.26892518139542
TIANMU-1 16             
1 58701U 24004B   26192.86023985  .00003151  00000+0  12174-3 0  9999
2 58701  97.4616  18.2694 0004337 261.5763  98.4984 15.26995122139549
TIANMU-1 17             
1 58702U 24004C   26192.84571767  .00003399  00000+0  13111-3 0  9990
2 58702  97.4642  18.7489 0003837 268.8301  91.2498 15.26993276139536
TIANMU-1 18             
1 58703U 24004D   26192.82161949  .00003327  00000+0  12872-3 0  9990
2 58703  97.4660  18.9872 0003541 240.6306 119.4579 15.26909245139536
INSAT-3DS               
1 58990U 24033A   26192.86637811 -.00000152  00000+0  00000+0 0  9990
2 58990   0.1008 265.4156 0001043 225.2891 193.0316  1.00271283 47310
METEOR-M2 4             
1 59051U 24039A   26192.87346236 -.00000013  00000+0  13803-4 0  9990
2 59051  98.7023 151.8629 0008239  97.0467 263.1648 14.22431979122779
GOES 19                 
1 60133U 24119A   26192.83518932 -.00000244  00000+0  00000+0 0  9998
2 60133   0.0117 275.3205 0000592 290.5406 309.3407  1.00269880  7210
MTG-S1                  
1 64723U 25143A   26192.85003051 -.00000003  00000+0  00000+0 0  9991
2 64723   0.5862 344.2822 0003483 262.0524 349.0001  1.00272868  3665
METOP-SGA1              
1 65159U 25172A   26192.80463737 -.00000002  00000+0  19510-4 0  9993
2 65159  98.6631 252.0118 0007239 342.3786  17.7139 14.19818799 47280
FENGYUN 3H              
1 65815U 25219A   26192.84512953 -.00000001  00000+0  19995-4 0  9999
2 65815  98.6772 133.1354 0001214  62.6147 297.5152 14.19924500 40886
